{
  "type": "FeatureCollection",
  "features": [
    {
      "type": "Feature",
      "properties": {
        "norad_id": 32175,
        "name": "FENGYUN 1C DEB",
        "group": "fengyun-1c-debris",
        "lat": -55.46550681823457,
        "lon": 155.1296158713881,
        "alt_km": 846.1659028510821,
        "timestamp": "2025-12-26T04:40:06.072511+00:00",
        "meta_object_name": "FENGYUN 1C DEB",
        "meta_object_id": "1999-025CTV",
        "meta_epoch": "2025-12-23T04:56:33.925344",
        "meta_mean_motion": 13.94880841,
        "meta_eccentricity": 0.01517458,
        "meta_inclination": 98.8236,
        "meta_ra_of_asc_node": 345.3153,
        "meta_arg_of_pericenter": 294.464,
        "meta_mean_anomaly": 64.0759,
        "meta_ephemeris_type": 0,
        "meta_classification_type": "U",
        "meta_norad_cat_id": 32175,
        "meta_element_set_no": 999,
        "meta_rev_at_epoch": 59986,
        "meta_bstar": 0.0025272856,
        "meta_mean_motion_dot": 3.694e-05,
        "meta_mean_motion_ddot": 0,
        "tle_line1": "1 32175U 99025CTV 25357.20594821  .00003694  00000+0  25273-2 0  9998",
        "tle_line2": "2 32175  98.8236 345.3153 0151745 294.4640  64.0759 13.94880841599866"
      },
      "geometry": {
        "type": "Point",
        "coordinates": [
          155.1296158713881,
          -55.46550681823457
        ]
      }
    },
    {
      "type": "Feature",
      "properties": {
        "norad_id": 32177,
        "name": "FENGYUN 1C DEB",
        "group": "fengyun-1c-debris",
        "lat": 72.43966815193826,
        "lon": -139.15876639378166,
        "alt_km": 704.377356398647,
        "timestamp": "2025-12-26T04:40:06.072521+00:00",
        "meta_object_name": "FENGYUN 1C DEB",
        "meta_object_id": "1999-025CTX",
        "meta_epoch": "2025-12-24T20:51:42.424128",
        "meta_mean_motion": 14.56358491,
        "meta_eccentricity": 0.0051413,
        "meta_inclination": 99.0441,
        "meta_ra_of_asc_node": 9.1854,
        "meta_arg_of_pericenter": 8.5544,
        "meta_mean_anomaly": 351.6516,
        "meta_ephemeris_type": 0,
        "meta_classification_type": "U",
        "meta_norad_cat_id": 32177,
        "meta_element_set_no": 999,
        "meta_rev_at_epoch": 71215,
        "meta_bstar": 0.0014896,
        "meta_mean_motion_dot": 6.674e-05,
        "meta_mean_motion_ddot": 0,
        "tle_line1": "1 32177U 99025CTX 25358.86924102  .00006674  00000+0  14896-2 0  9992",
        "tle_line2": "2 32177  99.0441   9.1854 0051413   8.5544 351.6516 14.56358491712155"
      },
      "geometry": {
        "type": "Point",
        "coordinates": [
          -139.15876639378166,
          72.43966815193826
        ]
      }
    },
    {
      "type": "Feature",
      "properties": {
        "norad_id": 32178,
        "name": "FENGYUN 1C DEB",
        "group": "fengyun-1c-debris",
        "lat": 30.76465166053611,
        "lon": -169.8887325341128,
        "alt_km": 863.2880312499328,
        "timestamp": "2025-12-26T04:40:06.072531+00:00",
        "meta_object_name": "FENGYUN 1C DEB",
        "meta_object_id": "1999-025CTY",
        "meta_epoch": "2025-12-23T18:35:31.360128",
        "meta_mean_motion": 14.23044864,
        "meta_eccentricity": 0.00944146,
        "meta_inclination": 100.3037,
        "meta_ra_of_asc_node": 1.0671,
        "meta_arg_of_pericenter": 293.0216,
        "meta_mean_anomaly": 66.1021,
        "meta_ephemeris_type": 0,
        "meta_classification_type": "U",
        "meta_norad_cat_id": 32178,
        "meta_element_set_no": 999,
        "meta_rev_at_epoch": 64160,
        "meta_bstar": 0.0011295374,
        "meta_mean_motion_dot": 2.608e-05,
        "meta_mean_motion_ddot": 0,
        "tle_line1": "1 32178U 99025CTY 25357.77466852  .00002608  00000+0  11295-2 0  9998",
        "tle_line2": "2 32178 100.3037   1.0671 0094414 293.0216  66.1021 14.23044864641606"
      },
      "geometry": {
        "type": "Point",
        "coordinates": [
          -169.8887325341128,
          30.76465166053611
        ]
      }
    },
    {
      "type": "Feature",
      "properties": {
        "norad_id": 32179,
        "name": "FENGYUN 1C DEB",
        "group": "fengyun-1c-debris",
        "lat": -50.42574501372635,
        "lon": 59.69601625944979,
        "alt_km": 984.6355259161837,
        "timestamp": "2025-12-26T04:40:06.072543+00:00",
        "meta_object_name": "FENGYUN 1C DEB",
        "meta_object_id": "1999-025CTZ",
        "meta_epoch": "2025-12-24T22:43:07.178304",
        "meta_mean_motion": 14.0369456,
        "meta_eccentricity": 0.0145903,
        "meta_inclination": 98.9083,
        "meta_ra_of_asc_node": 47.5341,
        "meta_arg_of_pericenter": 155.9615,
        "meta_mean_anomaly": 329.6,
        "meta_ephemeris_type": 0,
        "meta_classification_type": "U",
        "meta_norad_cat_id": 32179,
        "meta_element_set_no": 999,
        "meta_rev_at_epoch": 65899,
        "meta_bstar": 0.00039781,
        "meta_mean_motion_dot": 6.45e-06,
        "meta_mean_motion_ddot": 0,
        "tle_line1": "1 32179U 99025CTZ 25358.94661086  .00000645  00000+0  39781-3 0  9995",
        "tle_line2": "2 32179  98.9083  47.5341 0145903 155.9615 329.6000 14.03694560658994"
      },
      "geometry": {
        "type": "Point",
        "coordinates": [
          59.69601625944979,
          -50.42574501372635
        ]
      }
    },
    {
      "type": "Feature",
      "properties": {
        "norad_id": 32180,
        "name": "FENGYUN 1C DEB",
        "group": "fengyun-1c-debris",
        "lat": -77.05156496554875,
        "lon": 87.83970810718603,
        "alt_km": 985.4239666729427,
        "timestamp": "2025-12-26T04:40:06.072554+00:00",
        "meta_object_name": "FENGYUN 1C DEB",
        "meta_object_id": "1999-025CUA",
        "meta_epoch": "2025-12-22T23:28:34.256928",
        "meta_mean_motion": 13.8233046,
        "meta_eccentricity": 0.0136707,
        "meta_inclination": 99.5844,
        "meta_ra_of_asc_node": 37.2738,
        "meta_arg_of_pericenter": 183.4887,
        "meta_mean_anomaly": 296.4475,
        "meta_ephemeris_type": 0,
        "meta_classification_type": "U",
        "meta_norad_cat_id": 32180,
        "meta_element_set_no": 999,
        "meta_rev_at_epoch": 94409,
        "meta_bstar": 0.00010963048,
        "meta_mean_motion_dot": 8.1e-07,
        "meta_mean_motion_ddot": 0,
        "tle_line1": "1 32180U 99025CUA 25356.97817427  .00000081  00000+0  10963-3 0  9995",
        "tle_line2": "2 32180  99.5844  37.2738 0136707 183.4887 296.4475 13.82330460944091"
      },
      "geometry": {
        "type": "Point",
        "coordinates": [
          87.83970810718603,
          -77.05156496554875
        ]
      }
    },
    {
      "type": "Feature",
      "properties": {
        "norad_id": 32181,
        "name": "FENGYUN 1C DEB",
        "group": "fengyun-1c-debris",
        "lat": 6.679405951297666,
        "lon": -73.09484658084199,
        "alt_km": 739.2224490809622,
        "timestamp": "2025-12-26T04:40:06.072563+00:00",
        "meta_object_name": "FENGYUN 1C DEB",
        "meta_object_id": "1999-025CUB",
        "meta_epoch": "2025-12-24T01:34:25.782816",
        "meta_mean_motion": 14.56119063,
        "meta_eccentricity": 0.00732404,
        "meta_inclination": 99.4729,
        "meta_ra_of_asc_node": 103.3702,
        "meta_arg_of_pericenter": 51.7083,
        "meta_mean_anomaly": 127.0572,
        "meta_ephemeris_type": 0,
        "meta_classification_type": "U",
        "meta_norad_cat_id": 32181,
        "meta_element_set_no": 999,
        "meta_rev_at_epoch": 96885,
        "meta_bstar": 0.00098979645,
        "meta_mean_motion_dot": 4.469e-05,
        "meta_mean_motion_ddot": 0,
        "tle_line1": "1 32181U 99025CUB 25358.06557619  .00004469  00000+0  98980-3 0  9991",
        "tle_line2": "2 32181  99.4729 103.3702 0073240  51.7083 127.0572 14.56119063968859"
      },
      "geometry": {
        "type": "Point",
        "coordinates": [
          -73.09484658084199,
          6.679405951297666
        ]
      }
    },
    {
      "type": "Feature",
      "properties": {
        "norad_id": 32183,
        "name": "FENGYUN 1C DEB",
        "group": "fengyun-1c-debris",
        "lat": -76.52585873348347,
        "lon": 90.76121145703551,
        "alt_km": 872.7751069471669,
        "timestamp": "2025-12-26T04:40:06.072574+00:00",
        "meta_object_name": "FENGYUN 1C DEB",
        "meta_object_id": "1999-025CUD",
        "meta_epoch": "2025-12-24T20:41:19.245120",
        "meta_mean_motion": 14.10113391,
        "meta_eccentricity": 0.0042177,
        "meta_inclination": 98.7119,
        "meta_ra_of_asc_node": 49.6834,
        "meta_arg_of_pericenter": 26.6334,
        "meta_mean_anomaly": 333.6991,
        "meta_ephemeris_type": 0,
        "meta_classification_type": "U",
        "meta_norad_cat_id": 32183,
        "meta_element_set_no": 999,
        "meta_rev_at_epoch": 72935,
        "meta_bstar": 0.00069974,
        "meta_mean_motion_dot": 1.205e-05,
        "meta_mean_motion_ddot": 0,
        "tle_line1": "1 32183U 99025CUD 25358.86202830  .00001205  00000+0  69974-3 0  9999",
        "tle_line2": "2 32183  98.7119  49.6834 0042177  26.6334 333.6991 14.10113391729357"
      },
      "geometry": {
        "type": "Point",
        "coordinates": [
          90.76121145703551,
          -76.52585873348347
        ]
      }
    }
  ]
}